[{"OBJECT_NAME":"STARLINK-31161","OBJECT_ID":"2024-012J","EPOCH":"2026-03-09T07:58:51.726432","MEAN_MOTION":15.27571922,"ECCENTRICITY":8.21e-5,"INCLINATION":43.0016,"RA_OF_ASC_NODE":167.0695,"ARG_OF_PERICENTER":246.6906,"MEAN_ANOMALY":113.3859,"EPHEMERIS_TYPE":0,"CLASSIFICATION_TYPE":"U","NORAD_CAT_ID":58795,"ELEMENT_SET_NO":999,"REV_AT_EPOCH":12118,"BSTAR":5.159107e-6,"MEAN_MOTION_DOT":-1.2e-6,"MEAN_MOTION_DDOT":0},{"OBJECT_NAME":"NUSAT-44 (MARIA MITCHELL)","OBJECT_ID":"2024-043AA","EPOCH":"2026-03-09T22:12:18.524160","MEAN_MOTION":15.29764305,"ECCENTRICITY":0.0007331,"INCLINATION":97.5299,"RA_OF_ASC_NODE":207.7691,"ARG_OF_PERICENTER":214.9017,"MEAN_ANOMALY":145.1743,"EPHEMERIS_TYPE":0,"CLASSIFICATION_TYPE":"U","NORAD_CAT_ID":59122,"ELEMENT_SET_NO":999,"REV_AT_EPOCH":11209,"BSTAR":0.00061063193,"MEAN_MOTION_DOT":0.00017562,"MEAN_MOTION_DDOT":0}]
